{
  "type": "FeatureCollection",
  "features": [
    {
      "type": "Feature",
      "properties": {
        "norad_id": 59600,
        "name": "GSAT0227 (GALILEO 30)",
        "group": "galileo",
        "lat": 21.73413359623879,
        "lon": -89.97331424026629,
        "alt_km": 23211.96760045005,
        "timestamp": "2025-12-14T11:29:50.323558+00:00",
        "meta_object_name": "GSAT0227 (GALILEO 30)",
        "meta_object_id": "2024-079C",
        "meta_epoch": "2025-12-08T22:48:42.234912",
        "meta_mean_motion": 1.70474719,
        "meta_eccentricity": 0.0003262,
        "meta_inclination": 54.9946,
        "meta_ra_of_asc_node": 106.4003,
        "meta_arg_of_pericenter": 114.182,
        "meta_mean_anomaly": 245.816,
        "meta_ephemeris_type": 0,
        "meta_classification_type": "U",
        "meta_norad_cat_id": 59600,
        "meta_element_set_no": 999,
        "meta_rev_at_epoch": 1012,
        "meta_bstar": 0,
        "meta_mean_motion_dot": 9e-08,
        "meta_mean_motion_ddot": 0,
        "tle_line1": "1 59600U 24079C   25342.95048883  .00000009  00000+0  00000+0 0  9990",
        "tle_line2": "2 59600  54.9946 106.4003 0003262 114.1820 245.8160  1.70474719 10123"
      },
      "geometry": {
        "type": "Point",
        "coordinates": [
          -89.97331424026629,
          21.73413359623879
        ]
      }
    },
    {
      "type": "Feature",
      "properties": {
        "norad_id": 61182,
        "name": "GSAT0232 (GALILEO 32)",
        "group": "galileo",
        "lat": -10.257910628864847,
        "lon": -140.8222732200628,
        "alt_km": 23227.94944463663,
        "timestamp": "2025-12-14T11:29:50.323570+00:00",
        "meta_object_name": "GSAT0232 (GALILEO 32)",
        "meta_object_id": "2024-167A",
        "meta_epoch": "2025-12-12T10:51:18.741600",
        "meta_mean_motion": 1.70473504,
        "meta_eccentricity": 0.00019431,
        "meta_inclination": 55.2408,
        "meta_ra_of_asc_node": 226.4386,
        "meta_arg_of_pericenter": 211.6313,
        "meta_mean_anomaly": 332.0573,
        "meta_ephemeris_type": 0,
        "meta_classification_type": "U",
        "meta_norad_cat_id": 61182,
        "meta_element_set_no": 999,
        "meta_rev_at_epoch": 769,
        "meta_bstar": 0,
        "meta_mean_motion_dot": 1.6e-07,
        "meta_mean_motion_ddot": 0,
        "tle_line1": "1 61182U 24167A   25346.45230025  .00000016  00000+0  00000+0 0  9994",
        "tle_line2": "2 61182  55.2408 226.4386 0001943 211.6313 332.0573  1.70473504  7695"
      },
      "geometry": {
        "type": "Point",
        "coordinates": [
          -140.8222732200628,
          -10.257910628864847
        ]
      }
    },
    {
      "type": "Feature",
      "properties": {
        "norad_id": 61183,
        "name": "GSAT0226 (GALILEO 31)",
        "group": "galileo",
        "lat": 53.97537704297769,
        "lon": -26.167988875781635,
        "alt_km": 23213.53887407415,
        "timestamp": "2025-12-14T11:29:50.323581+00:00",
        "meta_object_name": "GSAT0226 (GALILEO 31)",
        "meta_object_id": "2024-167B",
        "meta_epoch": "2025-12-12T20:26:08.685024",
        "meta_mean_motion": 1.70473602,
        "meta_eccentricity": 8.42e-05,
        "meta_inclination": 55.2391,
        "meta_ra_of_asc_node": 226.433,
        "meta_arg_of_pericenter": 113.0334,
        "meta_mean_anomaly": 68.3038,
        "meta_ephemeris_type": 0,
        "meta_classification_type": "U",
        "meta_norad_cat_id": 61183,
        "meta_element_set_no": 999,
        "meta_rev_at_epoch": 767,
        "meta_bstar": 0,
        "meta_mean_motion_dot": 1.9e-07,
        "meta_mean_motion_ddot": 0,
        "tle_line1": "1 61183U 24167B   25346.85148941  .00000019  00000+0  00000+0 0  9997",
        "tle_line2": "2 61183  55.2391 226.4330 0000842 113.0334  68.3038  1.70473602  7673"
      },
      "geometry": {
        "type": "Point",
        "coordinates": [
          -26.167988875781635,
          53.97537704297769
        ]
      }
    }
  ]
}